start=new Date('2021-08-22T00:00:00.000Z').valueOf();
sats=[{"TLE_LINE1":"1 47794U 21018H   21234.05798732 -.00001150  00000-0 -58287-4 0  9999","OBJECT_NAME":"STARLINK-2341","MEAN_MOTION":"15.06392906","EPOCH":"2021-08-22T01:23:30.104448","CENTER_NAME":"EARTH","PERIAPSIS":"545.673","PERIOD":"95.593","RA_OF_ASC_NODE":"126.4714","MEAN_ELEMENT_THEORY":"SGP4","FILE":"3101121","DECAY_DATE":null,"REF_FRAME":"TEME","BSTAR":"-0.00005828700000","MEAN_ANOMALY":"277.8023","SITE":"AFETR","INCLINATION":"53.0569","TIME_SYSTEM":"UTC","OBJECT_TYPE":"PAYLOAD","ECCENTRICITY":"0.00022560","NORAD_CAT_ID":"47794","LAUNCH_DATE":"2021-03-11","COUNTRY_CODE":"US","ARG_OF_PERICENTER":"82.3222","ELEMENT_SET_NO":"999","REV_AT_EPOCH":"2623","GP_ID":"183217703","TLE_LINE2":"2 47794  53.0569 126.4714 0002256  82.3222 277.8023 15.06392906 26233","MEAN_MOTION_DOT":"-0.00001150","SEMIMAJOR_AXIS":"6925.370","APOAPSIS":"548.798","EPHEMERIS_TYPE":"0","CLASSIFICATION_TYPE":"U","RCS_SIZE":"LARGE","OBJECT_ID":"2021-018H","MEAN_MOTION_DDOT":"0.0000000000000"},{"MEAN_MOTION_DOT":"0.00000851","SEMIMAJOR_AXIS":"6925.348","APOAPSIS":"548.679","GP_ID":"183189933","TLE_LINE2":"2 47795  53.0557 129.1993 0002118  82.0792 278.0437 15.06400314 26141","RCS_SIZE":"LARGE","OBJECT_ID":"2021-018J","MEAN_MOTION_DDOT":"0.0000000000000","EPHEMERIS_TYPE":"0","CLASSIFICATION_TYPE":"U","ELEMENT_SET_NO":"999","LAUNCH_DATE":"2021-03-11","COUNTRY_CODE":"US","ARG_OF_PERICENTER":"82.0792","REV_AT_EPOCH":"2614","INCLINATION":"53.0557","TIME_SYSTEM":"UTC","BSTAR":"0.00007606100000","MEAN_ANOMALY":"278.0437","SITE":"AFETR","NORAD_CAT_ID":"47795","OBJECT_TYPE":"PAYLOAD","ECCENTRICITY":"0.00021180","CENTER_NAME":"EARTH","TLE_LINE1":"1 47795U 21018J   21233.44980468  .00000851  00000-0  76061-4 0  9996","EPOCH":"2021-08-21T10:47:43.124352","MEAN_MOTION":"15.06400314","OBJECT_NAME":"STARLINK-2347","DECAY_DATE":null,"FILE":"3100913","REF_FRAME":"TEME","PERIAPSIS":"545.746","PERIOD":"95.592","RA_OF_ASC_NODE":"129.1993","MEAN_ELEMENT_THEORY":"SGP4"},{"ECCENTRICITY":"0.00021590","OBJECT_TYPE":"PAYLOAD","NORAD_CAT_ID":"47796","SITE":"AFETR","MEAN_ANOMALY":"275.5900","BSTAR":"0.00001641700000","TIME_SYSTEM":"UTC","INCLINATION":"53.0566","MEAN_ELEMENT_THEORY":"SGP4","RA_OF_ASC_NODE":"127.3479","PERIOD":"95.592","PERIAPSIS":"545.735","REF_FRAME":"TEME","FILE":"3101032","DECAY_DATE":null,"EPOCH":"2021-08-21T20:42:11.403072","TLE_LINE1":"1 47796U 21018K   21233.86263198 -.00000037  00000-0  16417-4 0  9993","MEAN_MOTION":"15.06394535","OBJECT_NAME":"STARLINK-2373","CENTER_NAME":"EARTH","CLASSIFICATION_TYPE":"U","EPHEMERIS_TYPE":"0","MEAN_MOTION_DDOT":"0.0000000000000","OBJECT_ID":"2021-018K","RCS_SIZE":"LARGE","TLE_LINE2":"2 47796  53.0566 127.3479 0002159  84.5335 275.5900 15.06394535 26555","GP_ID":"183214679","APOAPSIS":"548.725","SEMIMAJOR_AXIS":"6925.365","MEAN_MOTION_DOT":"-0.00000037","REV_AT_EPOCH":"2655","ARG_OF_PERICENTER":"84.5335","COUNTRY_CODE":"US","LAUNCH_DATE":"2021-03-11","ELEMENT_SET_NO":"999"},{"APOAPSIS":"548.485","MEAN_MOTION_DOT":"0.00000747","SEMIMAJOR_AXIS":"6925.378","TLE_LINE2":"2 47797  53.0546 151.5876 0001794  55.3095 304.8063 15.06390495 25889","GP_ID":"183218211","OBJECT_ID":"2021-018L","MEAN_MOTION_DDOT":"0.0000000000000","RCS_SIZE":"LARGE","EPHEMERIS_TYPE":"0","CLASSIFICATION_TYPE":"U","ELEMENT_SET_NO":"999","ARG_OF_PERICENTER":"55.3095","LAUNCH_DATE":"2021-03-11","COUNTRY_CODE":"US","REV_AT_EPOCH":"2588","INCLINATION":"53.0546","TIME_SYSTEM":"UTC","BSTAR":"0.00006907000000","MEAN_ANOMALY":"304.8063","SITE":"AFETR","NORAD_CAT_ID":"47797","ECCENTRICITY":"0.00017940","OBJECT_TYPE":"PAYLOAD","CENTER_NAME":"EARTH","MEAN_MOTION":"15.06390495","TLE_LINE1":"1 47797U 21018L   21234.03173077  .00000747  00000-0  69070-4 0  9990","EPOCH":"2021-08-22T00:45:41.538528","OBJECT_NAME":"STARLINK-2377","REF_FRAME":"TEME","DECAY_DATE":null,"FILE":"3101122","RA_OF_ASC_NODE":"151.5876","MEAN_ELEMENT_THEORY":"SGP4","PERIAPSIS":"546.000","PERIOD":"95.593"},{"NORAD_CAT_ID":"47798","OBJECT_TYPE":"PAYLOAD","ECCENTRICITY":"0.00022310","INCLINATION":"53.0553","TIME_SYSTEM":"UTC","BSTAR":"0.00007081300000","SITE":"AFETR","MEAN_ANOMALY":"275.2044","FILE":"3101136","DECAY_DATE":null,"REF_FRAME":"TEME","PERIAPSIS":"545.663","PERIOD":"95.592","RA_OF_ASC_NODE":"126.4034","MEAN_ELEMENT_THEORY":"SGP4","CENTER_NAME":"EARTH","OBJECT_NAME":"STARLINK-2379","TLE_LINE1":"1 47798U 21018M   21234.07272601  .00000773  00000-0  70813-4 0  9994","MEAN_MOTION":"15.06401881","EPOCH":"2021-08-22T01:44:43.527264","RCS_SIZE":"LARGE","OBJECT_ID":"2021-018M","MEAN_MOTION_DDOT":"0.0000000000000","EPHEMERIS_TYPE":"0","CLASSIFICATION_TYPE":"U","MEAN_MOTION_DOT":"0.00000773","SEMIMAJOR_AXIS":"6925.343","APOAPSIS":"548.753","GP_ID":"183218228","TLE_LINE2":"2 47798  53.0553 126.4034 0002231  84.9200 275.2044 15.06401881 26230","REV_AT_EPOCH":"2623","ELEMENT_SET_NO":"999","LAUNCH_DATE":"2021-03-11","COUNTRY_CODE":"US","ARG_OF_PERICENTER":"84.9200"},{"MEAN_MOTION":"15.06393531","TLE_LINE1":"1 47799U 21018N   21233.87000509  .00000297  00000-0  38839-4 0  9991","EPOCH":"2021-08-21T20:52:48.439776","OBJECT_NAME":"STARLINK-2380","CENTER_NAME":"EARTH","MEAN_ELEMENT_THEORY":"SGP4","RA_OF_ASC_NODE":"127.3156","PERIOD":"95.593","PERIAPSIS":"545.726","REF_FRAME":"TEME","DECAY_DATE":null,"FILE":"3101032","SITE":"AFETR","MEAN_ANOMALY":"279.5389","BSTAR":"0.00003883900000","TIME_SYSTEM":"UTC","INCLINATION":"53.0568","ECCENTRICITY":"0.00021760","OBJECT_TYPE":"PAYLOAD","NORAD_CAT_ID":"47799","ARG_OF_PERICENTER":"80.5846","COUNTRY_CODE":"US","LAUNCH_DATE":"2021-03-11","ELEMENT_SET_NO":"999","REV_AT_EPOCH":"2654","TLE_LINE2":"2 47799  53.0568 127.3156 0002176  80.5846 279.5389 15.06393531 26543","GP_ID":"183214442","APOAPSIS":"548.740","SEMIMAJOR_AXIS":"6925.368","MEAN_MOTION_DOT":"0.00000297","CLASSIFICATION_TYPE":"U","EPHEMERIS_TYPE":"0","MEAN_MOTION_DDOT":"0.0000000000000","OBJECT_ID":"2021-018N","RCS_SIZE":"LARGE"},{"REF_FRAME":"TEME","DECAY_DATE":null,"FILE":"3101123","MEAN_ELEMENT_THEORY":"SGP4","RA_OF_ASC_NODE":"126.2694","PERIOD":"95.696","PERIAPSIS":"550.535","CENTER_NAME":"EARTH","TLE_LINE1":"1 47800U 21018P   21234.08240406  .00001064  00000-0  94115-4 0  9992","MEAN_MOTION":"15.04768827","OBJECT_NAME":"STARLINK-2381","EPOCH":"2021-08-22T01:58:39.710784","NORAD_CAT_ID":"47800","ECCENTRICITY":"0.00024270","OBJECT_TYPE":"PAYLOAD","TIME_SYSTEM":"UTC","INCLINATION":"53.0555","SITE":"AFETR","MEAN_ANOMALY":"278.2719","BSTAR":"0.00009411500000","REV_AT_EPOCH":"2624","ELEMENT_SET_NO":"999","ARG_OF_PERICENTER":"81.8545","COUNTRY_CODE":"US","LAUNCH_DATE":"2021-03-11","MEAN_MOTION_DDOT":"0.0000000000000","OBJECT_ID":"2021-018P","RCS_SIZE":"LARGE","CLASSIFICATION_TYPE":"U","EPHEMERIS_TYPE":"0","APOAPSIS":"553.899","SEMIMAJOR_AXIS":"6930.352","MEAN_MOTION_DOT":"0.00001064","TLE_LINE2":"2 47800  53.0555 126.2694 0002427  81.8545 278.2719 15.04768827 26248","GP_ID":"183218235"},{"FILE":"3101182","DECAY_DATE":null,"REF_FRAME":"TEME","PERIOD":"95.592","PERIAPSIS":"545.317","MEAN_ELEMENT_THEORY":"SGP4","RA_OF_ASC_NODE":"131.5165","CENTER_NAME":"EARTH","EPOCH":"2021-08-22T01:08:12.938208","TLE_LINE1":"1 47801U 21018Q   21234.04737197  .00000887  00000-0  78497-4 0  9994","MEAN_MOTION":"15.06396886","OBJECT_NAME":"STARLINK-2382","NORAD_CAT_ID":"47801","OBJECT_TYPE":"PAYLOAD","ECCENTRICITY":"0.00027530","TIME_SYSTEM":"UTC","INCLINATION":"53.0553","MEAN_ANOMALY":"275.0860","SITE":"AFETR","BSTAR":"0.00007849700000","REV_AT_EPOCH":"2616","ELEMENT_SET_NO":"999","COUNTRY_CODE":"US","LAUNCH_DATE":"2021-03-11","ARG_OF_PERICENTER":"85.0443","RCS_SIZE":"LARGE","MEAN_MOTION_DDOT":"0.0000000000000","OBJECT_ID":"2021-018Q","CLASSIFICATION_TYPE":"U","EPHEMERIS_TYPE":"0","SEMIMAJOR_AXIS":"6925.358","MEAN_MOTION_DOT":"0.00000887","APOAPSIS":"549.130","GP_ID":"183219694","TLE_LINE2":"2 47801  53.0553 131.5165 0002753  85.0443 275.0860 15.06396886 26161"},{"TLE_LINE1":"1 47802U 21018R   21233.90176586  .00001542  00000-0  12239-3 0  9998","EPOCH":"2021-08-21T21:38:32.570304","MEAN_MOTION":"15.06406500","OBJECT_NAME":"STARLINK-2383","CENTER_NAME":"EARTH","PERIOD":"95.592","PERIAPSIS":"545.853","MEAN_ELEMENT_THEORY":"SGP4","RA_OF_ASC_NODE":"152.1865","DECAY_DATE":null,"FILE":"3101032","REF_FRAME":"TEME","SITE":"AFETR","MEAN_ANOMALY":"305.3691","BSTAR":"0.00012239000000","TIME_SYSTEM":"UTC","INCLINATION":"53.0578","OBJECT_TYPE":"PAYLOAD","ECCENTRICITY":"0.00019360","NORAD_CAT_ID":"47802","COUNTRY_CODE":"US","LAUNCH_DATE":"2021-03-11","ARG_OF_PERICENTER":"54.7478","ELEMENT_SET_NO":"999","REV_AT_EPOCH":"2621","GP_ID":"183213692","TLE_LINE2":"2 47802  53.0578 152.1865 0001936  54.7478 305.3691 15.06406500 26218","SEMIMAJOR_AXIS":"6925.329","MEAN_MOTION_DOT":"0.00001542","APOAPSIS":"548.534","CLASSIFICATION_TYPE":"U","EPHEMERIS_TYPE":"0","RCS_SIZE":"LARGE","MEAN_MOTION_DDOT":"0.0000000000000","OBJECT_ID":"2021-018R"},{"CENTER_NAME":"EARTH","TLE_LINE1":"1 47803U 21018S   21234.10222422  .00001015  00000-0  87035-4 0  9995","MEAN_MOTION":"15.06396406","OBJECT_NAME":"STARLINK-2384","EPOCH":"2021-08-22T02:27:12.172608","REF_FRAME":"TEME","FILE":"3101205","DECAY_DATE":null,"RA_OF_ASC_NODE":"126.2728","MEAN_ELEMENT_THEORY":"SGP4","PERIAPSIS":"545.598","PERIOD":"95.592","INCLINATION":"53.0562","TIME_SYSTEM":"UTC","BSTAR":"0.00008703500000","SITE":"AFETR","MEAN_ANOMALY":"281.1063","NORAD_CAT_ID":"47803","ECCENTRICITY":"0.00023480","OBJECT_TYPE":"PAYLOAD","ELEMENT_SET_NO":"999","ARG_OF_PERICENTER":"79.0190","LAUNCH_DATE":"2021-03-11","COUNTRY_CODE":"US","REV_AT_EPOCH":"2624","APOAPSIS":"548.851","MEAN_MOTION_DOT":"0.00001015","SEMIMAJOR_AXIS":"6925.360","TLE_LINE2":"2 47803  53.0562 126.2728 0002348  79.0190 281.1063 15.06396406 26241","GP_ID":"183219948","OBJECT_ID":"2021-018S","MEAN_MOTION_DDOT":"0.0000000000000","RCS_SIZE":"LARGE","EPHEMERIS_TYPE":"0","CLASSIFICATION_TYPE":"U"}];
